[{"OBJECT_NAME":"STARLINK-31038","OBJECT_ID":"2023-200S","EPOCH":"2026-03-09T22:00:01.999584","MEAN_MOTION":15.26845511,"ECCENTRICITY":0.00013714,"INCLINATION":42.9996,"RA_OF_ASC_NODE":167.3794,"ARG_OF_PERICENTER":283.6753,"MEAN_ANOMALY":224.0704,"EPHEMERIS_TYPE":0,"CLASSIFICATION_TYPE":"U","NORAD_CAT_ID":58605,"ELEMENT_SET_NO":999,"REV_AT_EPOCH":578,"BSTAR":-0.0004130566,"MEAN_MOTION_DOT":-0.00011358,"MEAN_MOTION_DDOT":0},{"OBJECT_NAME":"LYNK TOWER 6","OBJECT_ID":"2024-043AB","EPOCH":"2026-03-09T21:28:38.303328","MEAN_MOTION":15.29548678,"ECCENTRICITY":0.00097492,"INCLINATION":97.5426,"RA_OF_ASC_NODE":204.1954,"ARG_OF_PERICENTER":232.0253,"MEAN_ANOMALY":128.0107,"EPHEMERIS_TYPE":0,"CLASSIFICATION_TYPE":"U","NORAD_CAT_ID":59123,"ELEMENT_SET_NO":999,"REV_AT_EPOCH":11184,"BSTAR":0.00040142146,"MEAN_MOTION_DOT":0.0001144,"MEAN_MOTION_DDOT":0}]
